ONEWEB-0312             
1 49098U 21075Z   26150.03816227  .00000076  00000+0  16372-3 0  9992
2 49098  87.9145   9.4832 0001925  95.7582 264.3769 13.17649180231211
ONEWEB-0313             
1 49099U 21075AA  26150.04308227  .00000081  00000+0  17561-3 0  9997
2 49099  87.9142   9.4885 0001915  87.7694 272.3656 13.17650917231204
ONEWEB-0314             
1 49100U 21075AB  26150.08541559  .00000129  00000+0  29908-3 0  9992
2 49100  87.9155   9.4505 0001959  95.3006 264.8349 13.17650959231188
ONEWEB-0315             
1 49101U 21075AC  26150.06405715 -.00000224  00000+0 -65801-3 0  9994
2 49101  87.8953 354.2485 0002190  87.0774 273.0605 13.12443267232792
ONEWEB-0316             
1 49102U 21075AD  26150.02433366  .00000053  00000+0  10286-3 0  9999
2 49102  87.9156 339.0720 0001901  90.1322 270.0028 13.18685843234810
ONEWEB-0317             
1 49103U 21075AE  26149.61002355 -.00000125  00000+0 -38280-3 0  9999
2 49103  87.8955 354.3622 0001048  90.9256 269.1993 13.12443409232759
ONEWEB-0318             
1 49104U 21075AF  26150.02095874  .00000043  00000+0  75053-4 0  9992
2 49104  87.9165 339.0725 0002096  89.2820 270.8553 13.18686108234776
ONEWEB-0319             
1 49105U 21075AG  26150.02464914  .00000067  00000+0  13955-3 0  9996
2 49105  87.9145   9.4804 0002363  84.3252 275.8149 13.17647600231218
ONEWEB-0323             
1 49106U 21075AH  26150.04881067 -.00000296  00000+0 -85901-3 0  9997
2 49106  87.8955 354.2563 0002342  90.8598 269.2798 13.12442165232179
ONEWEB-0329             
1 49107U 21075AJ  26149.65340603  .00000049  00000+0  92443-4 0  9993
2 49107  87.9147   9.5550 0001870  89.9229 270.2117 13.17650476231149
ONEWEB-0330             
1 49108U 21075AK  26150.05687382  .00000191  00000+0  45976-3 0  9994
2 49108  87.9150   9.4950 0001741  92.8036 267.3295 13.17650465231235
ONEWEB-0292             
1 49186U 21083A   26150.03528218 -.00000134  00000+0 -40290-3 0  9992
2 49186  87.8931 323.8560 0001982  91.1772 268.9584 13.13468229228542
ONEWEB-0303             
1 49187U 21083B   26150.01759010  .00000071  00000+0  14826-3 0  9991
2 49187  87.9161 339.0729 0001998  89.9501 270.1861 13.18686055227587
ONEWEB-0306             
1 49188U 21083C   26150.00747153  .00000135  00000+0  31017-3 0  9998
2 49188  87.9166 339.0617 0001619  90.9013 269.2305 13.18686023227621
ONEWEB-0307             
1 49189U 21083D   26150.02936622  .00000002  00000+0 -28263-4 0  9996
2 49189  87.8942 323.8528 0001900  93.3171 266.8175 13.13468344228549
ONEWEB-0320             
1 49190U 21083E   26150.02769744  .00000049  00000+0  91138-4 0  9998
2 49190  87.9155 339.0776 0001770  89.2972 270.8363 13.18687324227583
