[{"OBJECT_NAME":"ONEWEB-0312","OBJECT_ID":"2021-075Z","EPOCH":"2026-05-30T00:54:57.220128","MEAN_MOTION":13.1764918,"ECCENTRICITY":0.0001925,"INCLINATION":87.9145,"RA_OF_ASC_NODE":9.4832,"ARG_OF_PERICENTER":95.7582,"MEAN_ANOMALY":264.3769,"EPHEMERIS_TYPE":0,"CLASSIFICATION_TYPE":"U","NORAD_CAT_ID":49098,"ELEMENT_SET_NO":999,"REV_AT_EPOCH":23121,"BSTAR":0.00016372,"MEAN_MOTION_DOT":7.6e-07,"MEAN_MOTION_DDOT":0.0},{"OBJECT_NAME":"ONEWEB-0313","OBJECT_ID":"2021-075AA","EPOCH":"2026-05-30T01:02:02.308128","MEAN_MOTION":13.17650917,"ECCENTRICITY":0.0001915,"INCLINATION":87.9142,"RA_OF_ASC_NODE":9.4885,"ARG_OF_PERICENTER":87.7694,"MEAN_ANOMALY":272.3656,"EPHEMERIS_TYPE":0,"CLASSIFICATION_TYPE":"U","NORAD_CAT_ID":49099,"ELEMENT_SET_NO":999,"REV_AT_EPOCH":23120,"BSTAR":0.00017560999999999998,"MEAN_MOTION_DOT":8.1e-07,"MEAN_MOTION_DDOT":0.0},{"OBJECT_NAME":"ONEWEB-0314","OBJECT_ID":"2021-075AB","EPOCH":"2026-05-30T02:02:59.906976","MEAN_MOTION":13.17650959,"ECCENTRICITY":0.0001959,"INCLINATION":87.9155,"RA_OF_ASC_NODE":9.4505,"ARG_OF_PERICENTER":95.3006,"MEAN_ANOMALY":264.8349,"EPHEMERIS_TYPE":0,"CLASSIFICATION_TYPE":"U","NORAD_CAT_ID":49100,"ELEMENT_SET_NO":999,"REV_AT_EPOCH":23118,"BSTAR":0.00029908,"MEAN_MOTION_DOT":1.29e-06,"MEAN_MOTION_DDOT":0.0},{"OBJECT_NAME":"ONEWEB-0315","OBJECT_ID":"2021-075AC","EPOCH":"2026-05-30T01:32:14.537760","MEAN_MOTION":13.12443267,"ECCENTRICITY":0.000219,"INCLINATION":87.8953,"RA_OF_ASC_NODE":354.2485,"ARG_OF_PERICENTER":87.0774,"MEAN_ANOMALY":273.0605,"EPHEMERIS_TYPE":0,"CLASSIFICATION_TYPE":"U","NORAD_CAT_ID":49101,"ELEMENT_SET_NO":999,"REV_AT_EPOCH":23279,"BSTAR":-0.00065801,"MEAN_MOTION_DOT":-2.24e-06,"MEAN_MOTION_DDOT":0.0},{"OBJECT_NAME":"ONEWEB-0316","OBJECT_ID":"2021-075AD","EPOCH":"2026-05-30T00:35:02.428224","MEAN_MOTION":13.18685843,"ECCENTRICITY":0.0001901,"INCLINATION":87.9156,"RA_OF_ASC_NODE":339.072,"ARG_OF_PERICENTER":90.1322,"MEAN_ANOMALY":270.0028,"EPHEMERIS_TYPE":0,"CLASSIFICATION_TYPE":"U","NORAD_CAT_ID":49102,"ELEMENT_SET_NO":999,"REV_AT_EPOCH":23481,"BSTAR":0.00010286,"MEAN_MOTION_DOT":5.3e-07,"MEAN_MOTION_DDOT":0.0},{"OBJECT_NAME":"ONEWEB-0317","OBJECT_ID":"2021-075AE","EPOCH":"2026-05-29T14:38:26.034720","MEAN_MOTION":13.12443409,"ECCENTRICITY":0.0001048,"INCLINATION":87.8955,"RA_OF_ASC_NODE":354.3622,"ARG_OF_PERICENTER":90.9256,"MEAN_ANOMALY":269.1993,"EPHEMERIS_TYPE":0,"CLASSIFICATION_TYPE":"U","NORAD_CAT_ID":49103,"ELEMENT_SET_NO":999,"REV_AT_EPOCH":23275,"BSTAR":-0.0003828,"MEAN_MOTION_DOT":-1.25e-06,"MEAN_MOTION_DDOT":0.0},{"OBJECT_NAME":"ONEWEB-0318","OBJECT_ID":"2021-075AF","EPOCH":"2026-05-30T00:30:10.835136","MEAN_MOTION":13.18686108,"ECCENTRICITY":0.0002096,"INCLINATION":87.9165,"RA_OF_ASC_NODE":339.0725,"ARG_OF_PERICENTER":89.282,"MEAN_ANOMALY":270.8553,"EPHEMERIS_TYPE":0,"CLASSIFICATION_TYPE":"U","NORAD_CAT_ID":49104,"ELEMENT_SET_NO":999,"REV_AT_EPOCH":23477,"BSTAR":7.5053e-05,"MEAN_MOTION_DOT":4.3e-07,"MEAN_MOTION_DDOT":0.0},{"OBJECT_NAME":"ONEWEB-0319","OBJECT_ID":"2021-075AG","EPOCH":"2026-05-30T00:35:29.685696","MEAN_MOTION":13.176476,"ECCENTRICITY":0.0002363,"INCLINATION":87.9145,"RA_OF_ASC_NODE":9.4804,"ARG_OF_PERICENTER":84.3252,"MEAN_ANOMALY":275.8149,"EPHEMERIS_TYPE":0,"CLASSIFICATION_TYPE":"U","NORAD_CAT_ID":49105,"ELEMENT_SET_NO":999,"REV_AT_EPOCH":23121,"BSTAR":0.00013955,"MEAN_MOTION_DOT":6.7e-07,"MEAN_MOTION_DDOT":0.0},{"OBJECT_NAME":"ONEWEB-0323","OBJECT_ID":"2021-075AH","EPOCH":"2026-05-30T01:10:17.241888","MEAN_MOTION":13.12442165,"ECCENTRICITY":0.0002342,"INCLINATION":87.8955,"RA_OF_ASC_NODE":354.2563,"ARG_OF_PERICENTER":90.8598,"MEAN_ANOMALY":269.2798,"EPHEMERIS_TYPE":0,"CLASSIFICATION_TYPE":"U","NORAD_CAT_ID":49106,"ELEMENT_SET_NO":999,"REV_AT_EPOCH":23217,"BSTAR":-0.0008590100000000001,"MEAN_MOTION_DOT":-2.96e-06,"MEAN_MOTION_DDOT":0.0},{"OBJECT_NAME":"ONEWEB-0329","OBJECT_ID":"2021-075AJ","EPOCH":"2026-05-29T15:40:54.280992","MEAN_MOTION":13.17650476,"ECCENTRICITY":0.000187,"INCLINATION":87.9147,"RA_OF_ASC_NODE":9.555,"ARG_OF_PERICENTER":89.9229,"MEAN_ANOMALY":270.2117,"EPHEMERIS_TYPE":0,"CLASSIFICATION_TYPE":"U","NORAD_CAT_ID":49107,"ELEMENT_SET_NO":999,"REV_AT_EPOCH":23114,"BSTAR":9.2443e-05,"MEAN_MOTION_DOT":4.9e-07,"MEAN_MOTION_DDOT":0.0},{"OBJECT_NAME":"ONEWEB-0330","OBJECT_ID":"2021-075AK","EPOCH":"2026-05-30T01:21:53.898048","MEAN_MOTION":13.17650465,"ECCENTRICITY":0.0001741,"INCLINATION":87.915,"RA_OF_ASC_NODE":9.495,"ARG_OF_PERICENTER":92.8036,"MEAN_ANOMALY":267.3295,"EPHEMERIS_TYPE":0,"CLASSIFICATION_TYPE":"U","NORAD_CAT_ID":49108,"ELEMENT_SET_NO":999,"REV_AT_EPOCH":23123,"BSTAR":0.00045976000000000003,"MEAN_MOTION_DOT":1.91e-06,"MEAN_MOTION_DDOT":0.0},{"OBJECT_NAME":"ONEWEB-0292","OBJECT_ID":"2021-083A","EPOCH":"2026-05-30T00:50:48.380352","MEAN_MOTION":13.13468229,"ECCENTRICITY":0.0001982,"INCLINATION":87.8931,"RA_OF_ASC_NODE":323.856,"ARG_OF_PERICENTER":91.1772,"MEAN_ANOMALY":268.9584,"EPHEMERIS_TYPE":0,"CLASSIFICATION_TYPE":"U","NORAD_CAT_ID":49186,"ELEMENT_SET_NO":999,"REV_AT_EPOCH":22854,"BSTAR":-0.0004029,"MEAN_MOTION_DOT":-1.34e-06,"MEAN_MOTION_DDOT":0.0},{"OBJECT_NAME":"ONEWEB-0303","OBJECT_ID":"2021-083B","EPOCH":"2026-05-30T00:25:19.784640","MEAN_MOTION":13.18686055,"ECCENTRICITY":0.0001998,"INCLINATION":87.9161,"RA_OF_ASC_NODE":339.0729,"ARG_OF_PERICENTER":89.9501,"MEAN_ANOMALY":270.1861,"EPHEMERIS_TYPE":0,"CLASSIFICATION_TYPE":"U","NORAD_CAT_ID":49187,"ELEMENT_SET_NO":999,"REV_AT_EPOCH":22758,"BSTAR":0.00014826,"MEAN_MOTION_DOT":7.1e-07,"MEAN_MOTION_DDOT":0.0},{"OBJECT_NAME":"ONEWEB-0306","OBJECT_ID":"2021-083C","EPOCH":"2026-05-30T00:10:45.540192","MEAN_MOTION":13.18686023,"ECCENTRICITY":0.0001619,"INCLINATION":87.9166,"RA_OF_ASC_NODE":339.0617,"ARG_OF_PERICENTER":90.9013,"MEAN_ANOMALY":269.2305,"EPHEMERIS_TYPE":0,"CLASSIFICATION_TYPE":"U","NORAD_CAT_ID":49188,"ELEMENT_SET_NO":999,"REV_AT_EPOCH":22762,"BSTAR":0.00031017,"MEAN_MOTION_DOT":1.35e-06,"MEAN_MOTION_DDOT":0.0},{"OBJECT_NAME":"ONEWEB-0307","OBJECT_ID":"2021-083D","EPOCH":"2026-05-30T00:42:17.241408","MEAN_MOTION":13.13468344,"ECCENTRICITY":0.00019,"INCLINATION":87.8942,"RA_OF_ASC_NODE":323.8528,"ARG_OF_PERICENTER":93.3171,"MEAN_ANOMALY":266.8175,"EPHEMERIS_TYPE":0,"CLASSIFICATION_TYPE":"U","NORAD_CAT_ID":49189,"ELEMENT_SET_NO":999,"REV_AT_EPOCH":22854,"BSTAR":-2.8263e-05,"MEAN_MOTION_DOT":2e-08,"MEAN_MOTION_DDOT":0.0},{"OBJECT_NAME":"ONEWEB-0320","OBJECT_ID":"2021-083E","EPOCH":"2026-05-30T00:39:53.058816","MEAN_MOTION":13.18687324,"ECCENTRICITY":0.000177,"INCLINATION":87.9155,"RA_OF_ASC_NODE":339.0776,"ARG_OF_PERICENTER":89.2972,"MEAN_ANOMALY":270.8363,"EPHEMERIS_TYPE":0,"CLASSIFICATION_TYPE":"U","NORAD_CAT_ID":49190,"ELEMENT_SET_NO":999,"REV_AT_EPOCH":22758,"BSTAR":9.113800000000001e-05,"MEAN_MOTION_DOT":4.9e-07,"MEAN_MOTION_DDOT":0.0}]